{"fetched_at":"2026-03-29T16:36:15Z","count":15609,"tles":[{"name":"STARLINK-36065","line1":"1 66898U 25283W   26087.83940679  .00014667  00000+0  50598-3 0  9999","line2":"2 66898  53.1589 295.3898 0001316  77.4850 282.6298 15.30224436 18776","category":"Starlink"}]}