{
  "norad_id": 66898,
  "name": "STARLINK-36065",
  "history": [
    {
      "epoch": "2026-03-28T20:08:44.746656",
      "apogee_km": 476.04448015914295,
      "perigee_km": 474.2397376386043,
      "latitude_deg": -8.120214756244133,
      "longitude_deg": -129.61694816011004,
      "semi_major_axis_km": 6853.279108898873,
      "eccentricity": 0.00013167,
      "inclination_deg": 53.1589,
      "raan_deg": 295.3898,
      "arg_perigee_deg": 77.485,
      "mean_anomaly_deg": 282.6298,
      "mean_motion_rev_day": 15.30224436
    }
  ]
}